{
  "type": "FeatureCollection",
  "features": [
    {
      "type": "Feature",
      "properties": {
        "norad_id": 33765,
        "name": "COSMOS 2251 DEB",
        "group": "cosmos-2251-debris",
        "lat": -71.47617314180245,
        "lon": 33.434599280689454,
        "alt_km": 498.4207038025106,
        "timestamp": "2025-12-21T16:47:55.131343+00:00",
        "meta_object_name": "COSMOS 2251 DEB",
        "meta_object_id": "1993-036N",
        "meta_epoch": "2025-12-21T12:45:57.812832",
        "meta_mean_motion": 15.10439546,
        "meta_eccentricity": 0.0064997,
        "meta_inclination": 74.0083,
        "meta_ra_of_asc_node": 154.9192,
        "meta_arg_of_pericenter": 245.5497,
        "meta_mean_anomaly": 181.5198,
        "meta_ephemeris_type": 0,
        "meta_classification_type": "U",
        "meta_norad_cat_id": 33765,
        "meta_element_set_no": 999,
        "meta_rev_at_epoch": 89751,
        "meta_bstar": 0.0013335,
        "meta_mean_motion_dot": 0.00023096,
        "meta_mean_motion_ddot": 0,
        "tle_line1": "1 33765U 93036N   25355.53191913  .00023096  00000+0  13335-2 0  9993",
        "tle_line2": "2 33765  74.0083 154.9192 0064997 245.5497 181.5198 15.10439546897511"
      },
      "geometry": {
        "type": "Point",
        "coordinates": [
          33.434599280689454,
          -71.47617314180245
        ]
      }
    },
    {
      "type": "Feature",
      "properties": {
        "norad_id": 33766,
        "name": "COSMOS 2251 DEB",
        "group": "cosmos-2251-debris",
        "lat": -24.52435141806498,
        "lon": -53.86213700616969,
        "alt_km": 799.0721820956669,
        "timestamp": "2025-12-21T16:47:55.131353+00:00",
        "meta_object_name": "COSMOS 2251 DEB",
        "meta_object_id": "1993-036P",
        "meta_epoch": "2025-12-21T10:49:09.628896",
        "meta_mean_motion": 14.34957479,
        "meta_eccentricity": 0.0064607,
        "meta_inclination": 74.1858,
        "meta_ra_of_asc_node": 119.1605,
        "meta_arg_of_pericenter": 320.136,
        "meta_mean_anomaly": 39.5057,
        "meta_ephemeris_type": 0,
        "meta_classification_type": "U",
        "meta_norad_cat_id": 33766,
        "meta_element_set_no": 999,
        "meta_rev_at_epoch": 87870,
        "meta_bstar": 0.00040664,
        "meta_mean_motion_dot": 1.159e-05,
        "meta_mean_motion_ddot": 0,
        "tle_line1": "1 33766U 93036P   25355.45080589  .00001159  00000+0  40664-3 0  9993",
        "tle_line2": "2 33766  74.1858 119.1605 0064607 320.1360  39.5057 14.34957479878703"
      },
      "geometry": {
        "type": "Point",
        "coordinates": [
          -53.86213700616969,
          -24.52435141806498
        ]
      }
    },
    {
      "type": "Feature",
      "properties": {
        "norad_id": 33768,
        "name": "COSMOS 2251 DEB",
        "group": "cosmos-2251-debris",
        "lat": -8.135131471712429,
        "lon": 27.74741670982211,
        "alt_km": 1314.6568290105306,
        "timestamp": "2025-12-21T16:47:55.131364+00:00",
        "meta_object_name": "COSMOS 2251 DEB",
        "meta_object_id": "1993-036R",
        "meta_epoch": "2025-12-21T07:53:02.925312",
        "meta_mean_motion": 13.58461957,
        "meta_eccentricity": 0.0366724,
        "meta_inclination": 74.0667,
        "meta_ra_of_asc_node": 206.0065,
        "meta_arg_of_pericenter": 1.8777,
        "meta_mean_anomaly": 171.1932,
        "meta_ephemeris_type": 0,
        "meta_classification_type": "U",
        "meta_norad_cat_id": 33768,
        "meta_element_set_no": 999,
        "meta_rev_at_epoch": 83412,
        "meta_bstar": 0.00028377,
        "meta_mean_motion_dot": 2.99e-06,
        "meta_mean_motion_ddot": 0,
        "tle_line1": "1 33768U 93036R   25355.32850608  .00000299  00000+0  28377-3 0  9999",
        "tle_line2": "2 33768  74.0667 206.0065 0366724   1.8777 171.1932 13.58461957834127"
      },
      "geometry": {
        "type": "Point",
        "coordinates": [
          27.74741670982211,
          -8.135131471712429
        ]
      }
    },
    {
      "type": "Feature",
      "properties": {
        "norad_id": 33779,
        "name": "COSMOS 2251 DEB",
        "group": "cosmos-2251-debris",
        "lat": -68.8655706315027,
        "lon": 21.085463093808023,
        "alt_km": 661.9553383038137,
        "timestamp": "2025-12-21T16:47:55.131375+00:00",
        "meta_object_name": "COSMOS 2251 DEB",
        "meta_object_id": "1993-036U",
        "meta_epoch": "2025-12-21T05:01:40.532160",
        "meta_mean_motion": 14.70639035,
        "meta_eccentricity": 0.00163308,
        "meta_inclination": 74.0446,
        "meta_ra_of_asc_node": 154.296,
        "meta_arg_of_pericenter": 187.0839,
        "meta_mean_anomaly": 353.1749,
        "meta_ephemeris_type": 0,
        "meta_classification_type": "U",
        "meta_norad_cat_id": 33779,
        "meta_element_set_no": 999,
        "meta_rev_at_epoch": 88652,
        "meta_bstar": 0.0015250217,
        "meta_mean_motion_dot": 9.28e-05,
        "meta_mean_motion_ddot": 0,
        "tle_line1": "1 33779U 93036U   25355.20949690  .00009280  00000+0  15250-2 0  9992",
        "tle_line2": "2 33779  74.0446 154.2960 0016330 187.0839 353.1749 14.70639035886521"
      },
      "geometry": {
        "type": "Point",
        "coordinates": [
          21.085463093808023,
          -68.8655706315027
        ]
      }
    },
    {
      "type": "Feature",
      "properties": {
        "norad_id": 33782,
        "name": "COSMOS 2251 DEB",
        "group": "cosmos-2251-debris",
        "lat": 50.3843357576953,
        "lon": 60.73943548080783,
        "alt_km": 766.2682299649105,
        "timestamp": "2025-12-21T16:47:55.131384+00:00",
        "meta_object_name": "COSMOS 2251 DEB",
        "meta_object_id": "1993-036X",
        "meta_epoch": "2025-12-21T05:15:43.351200",
        "meta_mean_motion": 14.40466989,
        "meta_eccentricity": 0.00210451,
        "meta_inclination": 74.033,
        "meta_ra_of_asc_node": 261.8645,
        "meta_arg_of_pericenter": 325.5713,
        "meta_mean_anomaly": 189.3283,
        "meta_ephemeris_type": 0,
        "meta_classification_type": "U",
        "meta_norad_cat_id": 33782,
        "meta_element_set_no": 999,
        "meta_rev_at_epoch": 88248,
        "meta_bstar": 0.00025646412,
        "meta_mean_motion_dot": 7.91e-06,
        "meta_mean_motion_ddot": 0,
        "tle_line1": "1 33782U 93036X   25355.21925175  .00000791  00000+0  25646-3 0  9998",
        "tle_line2": "2 33782  74.0330 261.8645 0021045 325.5713 189.3283 14.40466989882487"
      },
      "geometry": {
        "type": "Point",
        "coordinates": [
          60.73943548080783,
          50.3843357576953
        ]
      }
    },
    {
      "type": "Feature",
      "properties": {
        "norad_id": 33785,
        "name": "COSMOS 2251 DEB",
        "group": "cosmos-2251-debris",
        "lat": -47.34856373976848,
        "lon": -119.32687607156042,
        "alt_km": 670.9725933325699,
        "timestamp": "2025-12-21T16:47:55.131395+00:00",
        "meta_object_name": "COSMOS 2251 DEB",
        "meta_object_id": "1993-036AA",
        "meta_epoch": "2025-12-21T13:01:26.135904",
        "meta_mean_motion": 14.70662502,
        "meta_eccentricity": 0.0023106,
        "meta_inclination": 73.8668,
        "meta_ra_of_asc_node": 42.668,
        "meta_arg_of_pericenter": 340.3812,
        "meta_mean_anomaly": 137.3935,
        "meta_ephemeris_type": 0,
        "meta_classification_type": "U",
        "meta_norad_cat_id": 33785,
        "meta_element_set_no": 999,
        "meta_rev_at_epoch": 88636,
        "meta_bstar": 0.0014349,
        "meta_mean_motion_dot": 8.751e-05,
        "meta_mean_motion_ddot": 0,
        "tle_line1": "1 33785U 93036AA  25355.54266361  .00008751  00000+0  14349-2 0  9993",
        "tle_line2": "2 33785  73.8668  42.6680 0023106 340.3812 137.3935 14.70662502886360"
      },
      "geometry": {
        "type": "Point",
        "coordinates": [
          -119.32687607156042,
          -47.34856373976848
        ]
      }
    },
    {
      "type": "Feature",
      "properties": {
        "norad_id": 33789,
        "name": "COSMOS 2251 DEB",
        "group": "cosmos-2251-debris",
        "lat": -60.79088001721515,
        "lon": 41.467963631746095,
        "alt_km": 992.8616551197119,
        "timestamp": "2025-12-21T16:47:55.131406+00:00",
        "meta_object_name": "COSMOS 2251 DEB",
        "meta_object_id": "1993-036AE",
        "meta_epoch": "2025-12-21T12:04:26.505120",
        "meta_mean_motion": 13.88814211,
        "meta_eccentricity": 0.023978,
        "meta_inclination": 74.0645,
        "meta_ra_of_asc_node": 72.5335,
        "meta_arg_of_pericenter": 186.2377,
        "meta_mean_anomaly": 202.139,
        "meta_ephemeris_type": 0,
        "meta_classification_type": "U",
        "meta_norad_cat_id": 33789,
        "meta_element_set_no": 999,
        "meta_rev_at_epoch": 85217,
        "meta_bstar": 0.00055074,
        "meta_mean_motion_dot": 8.14e-06,
        "meta_mean_motion_ddot": 0,
        "tle_line1": "1 33789U 93036AE  25355.50308455  .00000814  00000+0  55074-3 0  9997",
        "tle_line2": "2 33789  74.0645  72.5335 0239780 186.2377 202.1390 13.88814211852173"
      },
      "geometry": {
        "type": "Point",
        "coordinates": [
          41.467963631746095,
          -60.79088001721515
        ]
      }
    }
  ]
}